0 FENGYUN 1C DEB
1 31234U 99025BLQ 13281.28530619  .00000071  00000-0  69894-4 0  4631
2 31234 099.0759 300.7788 0077592 087.6744 273.3310 14.04658601334838
0 FENGYUN 1C DEB
1 31234U 99025BLQ 13284.27699523  .00000084  00000-0  77896-4 0  4649
2 31234 099.0745 303.7658 0077580 079.5735 281.4265 14.04659806335253
0 FENGYUN 1C DEB
1 31234U 99025BLQ 13286.27144784  .00000170  00000-0  13034-3 0  4655
2 31234 099.0793 305.7724 0078774 074.3388 286.6563 14.04661941335537
0 FENGYUN 1C DEB
1 31234U 99025BLQ 13287.26867176  .00000256  00000-0  18242-3 0  4664
2 31234 099.0772 306.7626 0078297 071.7134 289.2813 14.04664111335670
0 FENGYUN 1C DEB
1 31234U 99025BLQ 13289.26311379  .00000355  00000-0  24267-3 0  4670
2 31234 099.0769 308.7546 0078106 067.1903 293.7887 14.04667323335951
0 FENGYUN 1C DEB
1 31234U 99025BLQ 13291.25754258  .00000490  00000-0  32519-3 0  4689
2 31234 099.0734 310.7424 0078294 062.2461 298.6767 14.04671596336234
0 FENGYUN 1C DEB
1 31234U 99025BLQ 13293.89303742  .00000547  00000-0  35988-3 0  4696
2 31234 099.0749 313.3795 0078062 054.5053 306.3353 14.04675491336601
